{
  "type": "FeatureCollection",
  "features": [
    {
      "type": "Feature",
      "properties": {
        "norad_id": 32376,
        "name": "COSMO-SKYMED 2",
        "group": "resource",
        "lat": -7.446756952148113,
        "lon": 1.0488881135955321,
        "alt_km": 626.6940050152407,
        "timestamp": "2025-12-26T23:26:41.810227+00:00",
        "meta_object_name": "COSMO-SKYMED 2",
        "meta_object_id": "2007-059A",
        "meta_epoch": "2025-12-26T16:07:16.398912",
        "meta_mean_motion": 14.82159872,
        "meta_eccentricity": 0.00012951,
        "meta_inclination": 97.8806,
        "meta_ra_of_asc_node": 181.7858,
        "meta_arg_of_pericenter": 83.13,
        "meta_mean_anomaly": 277.006,
        "meta_ephemeris_type": 0,
        "meta_classification_type": "U",
        "meta_norad_cat_id": 32376,
        "meta_element_set_no": 999,
        "meta_rev_at_epoch": 97644,
        "meta_bstar": 8.3902315e-05,
        "meta_mean_motion_dot": 6.16e-06,
        "meta_mean_motion_ddot": 0,
        "tle_line1": "1 32376U 07059A   25360.67171758  .00000616  00000+0  83902-4 0  9998",
        "tle_line2": "2 32376  97.8806 181.7858 0001295  83.1300 277.0060 14.82159872976440"
      },
      "geometry": {
        "type": "Point",
        "coordinates": [
          1.0488881135955321,
          -7.446756952148113
        ]
      }
    },
    {
      "type": "Feature",
      "properties": {
        "norad_id": 32382,
        "name": "RADARSAT-2",
        "group": "resource",
        "lat": -13.073023299690696,
        "lon": 7.368832407536414,
        "alt_km": 796.3422151292461,
        "timestamp": "2025-12-26T23:26:41.810236+00:00",
        "meta_object_name": "RADARSAT-2",
        "meta_object_id": "2007-061A",
        "meta_epoch": "2025-12-26T15:06:36.544896",
        "meta_mean_motion": 14.29986012,
        "meta_eccentricity": 0.00011291,
        "meta_inclination": 98.58,
        "meta_ra_of_asc_node": 5.0175,
        "meta_arg_of_pericenter": 84.8356,
        "meta_mean_anomaly": 275.2955,
        "meta_ephemeris_type": 0,
        "meta_classification_type": "U",
        "meta_norad_cat_id": 32382,
        "meta_element_set_no": 999,
        "meta_rev_at_epoch": 94129,
        "meta_bstar": 0.00010976,
        "meta_mean_motion_dot": 2.39e-06,
        "meta_mean_motion_ddot": 0,
        "tle_line1": "1 32382U 07061A   25360.62958964  .00000239  00000+0  10976-3 0  9996",
        "tle_line2": "2 32382  98.5800   5.0175 0001129  84.8356 275.2955 14.29986012941297"
      },
      "geometry": {
        "type": "Point",
        "coordinates": [
          7.368832407536414,
          -13.073023299690696
        ]
      }
    },
    {
      "type": "Feature",
      "properties": {
        "norad_id": 32783,
        "name": "CARTOSAT-2A",
        "group": "resource",
        "lat": 16.918985416070306,
        "lon": -127.25953348018939,
        "alt_km": 640.085584916993,
        "timestamp": "2025-12-26T23:26:41.810246+00:00",
        "meta_object_name": "CARTOSAT-2A",
        "meta_object_id": "2008-021A",
        "meta_epoch": "2025-12-26T17:50:21.369696",
        "meta_mean_motion": 14.78954878,
        "meta_eccentricity": 0.0010893,
        "meta_inclination": 97.7908,
        "meta_ra_of_asc_node": 50.1274,
        "meta_arg_of_pericenter": 317.854,
        "meta_mean_anomaly": 42.1833,
        "meta_ephemeris_type": 0,
        "meta_classification_type": "U",
        "meta_norad_cat_id": 32783,
        "meta_element_set_no": 999,
        "meta_rev_at_epoch": 95331,
        "meta_bstar": 6.0401e-05,
        "meta_mean_motion_dot": 3.96e-06,
        "meta_mean_motion_ddot": 0,
        "tle_line1": "1 32783U 08021A   25360.74330289  .00000396  00000+0  60401-4 0  9998",
        "tle_line2": "2 32783  97.7908  50.1274 0010893 317.8540  42.1833 14.78954878953316"
      },
      "geometry": {
        "type": "Point",
        "coordinates": [
          -127.25953348018939,
          16.918985416070306
        ]
      }
    },
    {
      "type": "Feature",
      "properties": {
        "norad_id": 33320,
        "name": "HUANJING 1A (HJ-1A)",
        "group": "resource",
        "lat": -74.60274535820267,
        "lon": 139.44557352862117,
        "alt_km": 626.3098341886234,
        "timestamp": "2025-12-26T23:26:41.810255+00:00",
        "meta_object_name": "HUANJING 1A (HJ-1A)",
        "meta_object_id": "2008-041A",
        "meta_epoch": "2025-12-26T17:26:02.395968",
        "meta_mean_motion": 14.83437692,
        "meta_eccentricity": 0.0019018,
        "meta_inclination": 97.6554,
        "meta_ra_of_asc_node": 348.4412,
        "meta_arg_of_pericenter": 349.6138,
        "meta_mean_anomaly": 10.4681,
        "meta_ephemeris_type": 0,
        "meta_classification_type": "U",
        "meta_norad_cat_id": 33320,
        "meta_element_set_no": 999,
        "meta_rev_at_epoch": 93283,
        "meta_bstar": 0.00023291,
        "meta_mean_motion_dot": 1.867e-05,
        "meta_mean_motion_ddot": 0,
        "tle_line1": "1 33320U 08041A   25360.72641662  .00001867  00000+0  23291-3 0  9995",
        "tle_line2": "2 33320  97.6554 348.4412 0019018 349.6138  10.4681 14.83437692932830"
      },
      "geometry": {
        "type": "Point",
        "coordinates": [
          139.44557352862117,
          -74.60274535820267
        ]
      }
    },
    {
      "type": "Feature",
      "properties": {
        "norad_id": 33321,
        "name": "HUANJING 1B (HJ-1B)",
        "group": "resource",
        "lat": 82.2500856287576,
        "lon": -88.2228917950004,
        "alt_km": 598.8490281094355,
        "timestamp": "2025-12-26T23:26:41.810264+00:00",
        "meta_object_name": "HUANJING 1B (HJ-1B)",
        "meta_object_id": "2008-041B",
        "meta_epoch": "2025-12-26T18:11:25.767168",
        "meta_mean_motion": 14.82859441,
        "meta_eccentricity": 0.0037654,
        "meta_inclination": 97.6412,
        "meta_ra_of_asc_node": 352.1316,
        "meta_arg_of_pericenter": 31.3457,
        "meta_mean_anomaly": 328.9991,
        "meta_ephemeris_type": 0,
        "meta_classification_type": "U",
        "meta_norad_cat_id": 33321,
        "meta_element_set_no": 999,
        "meta_rev_at_epoch": 93285,
        "meta_bstar": 0.00020785,
        "meta_mean_motion_dot": 1.652e-05,
        "meta_mean_motion_ddot": 0,
        "tle_line1": "1 33321U 08041B   25360.75793712  .00001652  00000+0  20785-3 0  9990",
        "tle_line2": "2 33321  97.6412 352.1316 0037654  31.3457 328.9991 14.82859441932856"
      },
      "geometry": {
        "type": "Point",
        "coordinates": [
          -88.2228917950004,
          82.2500856287576
        ]
      }
    },
    {
      "type": "Feature",
      "properties": {
        "norad_id": 33331,
        "name": "GEOEYE 1",
        "group": "resource",
        "lat": -47.585624282114146,
        "lon": -116.9178986951057,
        "alt_km": 682.6332520110336,
        "timestamp": "2025-12-26T23:26:41.810274+00:00",
        "meta_object_name": "GEOEYE 1",
        "meta_object_id": "2008-042A",
        "meta_epoch": "2025-12-26T17:29:16.230048",
        "meta_mean_motion": 14.64718858,
        "meta_eccentricity": 0.0003076,
        "meta_inclination": 98.1236,
        "meta_ra_of_asc_node": 71.832,
        "meta_arg_of_pericenter": 224.6265,
        "meta_mean_anomaly": 135.4691,
        "meta_ephemeris_type": 0,
        "meta_classification_type": "U",
        "meta_norad_cat_id": 33331,
        "meta_element_set_no": 999,
        "meta_rev_at_epoch": 92490,
        "meta_bstar": 0.00012672,
        "meta_mean_motion_dot": 6.27e-06,
        "meta_mean_motion_ddot": 0,
        "tle_line1": "1 33331U 08042A   25360.72866007  .00000627  00000+0  12672-3 0  9994",
        "tle_line2": "2 33331  98.1236  71.8320 0003076 224.6265 135.4691 14.64718858924903"
      },
      "geometry": {
        "type": "Point",
        "coordinates": [
          -116.9178986951057,
          -47.585624282114146
        ]
      }
    },
    {
      "type": "Feature",
      "properties": {
        "norad_id": 33396,
        "name": "THEOS",
        "group": "resource",
        "lat": -38.442280605744706,
        "lon": 65.53129953775104,
        "alt_km": 831.9508969453718,
        "timestamp": "2025-12-26T23:26:41.810283+00:00",
        "meta_object_name": "THEOS",
        "meta_object_id": "2008-049A",
        "meta_epoch": "2025-12-26T18:33:18.448416",
        "meta_mean_motion": 14.20099941,
        "meta_eccentricity": 0.0001192,
        "meta_inclination": 98.5843,
        "meta_ra_of_asc_node": 58.4471,
        "meta_arg_of_pericenter": 91.1026,
        "meta_mean_anomaly": 269.0288,
        "meta_ephemeris_type": 0,
        "meta_classification_type": "U",
        "meta_norad_cat_id": 33396,
        "meta_element_set_no": 999,
        "meta_rev_at_epoch": 89349,
        "meta_bstar": 7.8092e-05,
        "meta_mean_motion_dot": 1.24e-06,
        "meta_mean_motion_ddot": 0,
        "tle_line1": "1 33396U 08049A   25360.77313019  .00000124  00000+0  78092-4 0  9998",
        "tle_line2": "2 33396  98.5843  58.4471 0001192  91.1026 269.0288 14.20099941893491"
      },
      "geometry": {
        "type": "Point",
        "coordinates": [
          65.53129953775104,
          -38.442280605744706
        ]
      }
    }
  ]
}